[Satellite]
VERSION=1.1
NAME=STARLINK-5161
NICKNAME=STARLINK-5161
TLE1=1 54163U 22141G   22321.58334491  .00017193  00000+0  12669-3 0  9993
TLE2=2 54163  53.2188  42.2675 0003181  18.5066 100.5760 15.73194509  1300
STATUS=0
